start=new Date('2022-02-16T00:00:00.000Z').valueOf();
sats=[{"TIME_SYSTEM":"UTC","OBJECT_TYPE":"PAYLOAD","CENTER_NAME":"EARTH","GP_ID":"196056010","APOAPSIS":"548.413","OBJECT_ID":"2019-074G","REV_AT_EPOCH":"12638","MEAN_MOTION_DOT":"-0.00003513","EPHEMERIS_TYPE":"0","REF_FRAME":"TEME","RCS_SIZE":"LARGE","RA_OF_ASC_NODE":"3.1055","TLE_LINE1":"1 44719U 19074G   22046.90317061 -.00003513  00000-0 -21713-3 0  9998","TLE_LINE2":"2 44719  53.0564   3.1055 0001692  60.6381 299.4777 15.06390934126381","NORAD_CAT_ID":"44719","ELEMENT_SET_NO":"999","MEAN_MOTION":"15.06390934","OBJECT_NAME":"STARLINK-1013","BSTAR":"-0.00021713000000","PERIAPSIS":"546.070","SITE":"AFETR","CLASSIFICATION_TYPE":"U","FILE":"3301463","COUNTRY_CODE":"US","INCLINATION":"53.0564","SEMIMAJOR_AXIS":"6925.376","DECAY_DATE":null,"ECCENTRICITY":"0.00016920","PERIOD":"95.593","MEAN_MOTION_DDOT":"0.0000000000000","ARG_OF_PERICENTER":"60.6381","EPOCH":"2022-02-15T21:40:33.940704","LAUNCH_DATE":"2019-11-11","MEAN_ANOMALY":"299.4777","MEAN_ELEMENT_THEORY":"SGP4"},{"RCS_SIZE":"LARGE","NORAD_CAT_ID":"44720","TLE_LINE2":"2 44720  53.0545   4.5072 0001526  62.8961 297.2183 15.06404853125214","TLE_LINE1":"1 44720U 19074H   22046.58987044  .00006481  00000-0  45350-3 0  9996","RA_OF_ASC_NODE":"4.5072","REV_AT_EPOCH":"12521","OBJECT_ID":"2019-074H","APOAPSIS":"548.255","GP_ID":"196026414","CENTER_NAME":"EARTH","TIME_SYSTEM":"UTC","OBJECT_TYPE":"PAYLOAD","REF_FRAME":"TEME","EPHEMERIS_TYPE":"0","MEAN_MOTION_DOT":"0.00006481","PERIOD":"95.592","DECAY_DATE":null,"ECCENTRICITY":"0.00015260","COUNTRY_CODE":"US","SEMIMAJOR_AXIS":"6925.334","INCLINATION":"53.0545","MEAN_ELEMENT_THEORY":"SGP4","MEAN_ANOMALY":"297.2183","LAUNCH_DATE":"2019-11-11","ARG_OF_PERICENTER":"62.8961","EPOCH":"2022-02-15T14:09:24.806016","MEAN_MOTION_DDOT":"0.0000000000000","OBJECT_NAME":"STARLINK-1014","BSTAR":"0.00045350000000","MEAN_MOTION":"15.06404853","ELEMENT_SET_NO":"999","FILE":"3301229","CLASSIFICATION_TYPE":"U","SITE":"AFETR","PERIAPSIS":"546.142"},{"RCS_SIZE":"LARGE","TLE_LINE2":"2 44721  53.0567   3.0644 0001672  59.7158 300.3996 15.06390464125257","NORAD_CAT_ID":"44721","RA_OF_ASC_NODE":"3.0644","TLE_LINE1":"1 44721U 19074J   22046.91054016 -.00001783  00000-0 -10087-3 0  9999","OBJECT_ID":"2019-074J","REV_AT_EPOCH":"12525","OBJECT_TYPE":"PAYLOAD","TIME_SYSTEM":"UTC","GP_ID":"196057013","APOAPSIS":"548.401","CENTER_NAME":"EARTH","REF_FRAME":"TEME","MEAN_MOTION_DOT":"-0.00001783","EPHEMERIS_TYPE":"0","DECAY_DATE":null,"ECCENTRICITY":"0.00016720","PERIOD":"95.593","INCLINATION":"53.0567","COUNTRY_CODE":"US","SEMIMAJOR_AXIS":"6925.378","MEAN_ANOMALY":"300.3996","LAUNCH_DATE":"2019-11-11","MEAN_ELEMENT_THEORY":"SGP4","MEAN_MOTION_DDOT":"0.0000000000000","EPOCH":"2022-02-15T21:51:10.669824","ARG_OF_PERICENTER":"59.7158","MEAN_MOTION":"15.06390464","BSTAR":"-0.00010087000000","OBJECT_NAME":"STARLINK-1015","ELEMENT_SET_NO":"999","CLASSIFICATION_TYPE":"U","FILE":"3301463","PERIAPSIS":"546.085","SITE":"AFETR"},{"BSTAR":"0.00010961000000","OBJECT_NAME":"STARLINK-1016","MEAN_MOTION":"15.06388627","ELEMENT_SET_NO":"999","FILE":"3301463","CLASSIFICATION_TYPE":"U","SITE":"AFETR","PERIAPSIS":"546.302","DECAY_DATE":null,"ECCENTRICITY":"0.00013670","PERIOD":"95.593","INCLINATION":"53.0556","COUNTRY_CODE":"US","SEMIMAJOR_AXIS":"6925.383","MEAN_ELEMENT_THEORY":"SGP4","LAUNCH_DATE":"2019-11-11","MEAN_ANOMALY":"283.5986","EPOCH":"2022-02-15T20:20:58.055424","ARG_OF_PERICENTER":"76.5156","MEAN_MOTION_DDOT":"0.0000000000000","REV_AT_EPOCH":"12525","OBJECT_ID":"2019-074K","GP_ID":"196057264","CENTER_NAME":"EARTH","APOAPSIS":"548.195","OBJECT_TYPE":"PAYLOAD","TIME_SYSTEM":"UTC","REF_FRAME":"TEME","EPHEMERIS_TYPE":"0","MEAN_MOTION_DOT":"0.00001351","RCS_SIZE":"LARGE","NORAD_CAT_ID":"44722","TLE_LINE2":"2 44722  53.0556   3.3522 0001367  76.5156 283.5986 15.06388627125259","TLE_LINE1":"1 44722U 19074K   22046.84789416  .00001351  00000-0  10961-3 0  9991","RA_OF_ASC_NODE":"3.3522"},{"REV_AT_EPOCH":"12522","OBJECT_ID":"2019-074L","GP_ID":"196056510","APOAPSIS":"548.370","CENTER_NAME":"EARTH","OBJECT_TYPE":"PAYLOAD","TIME_SYSTEM":"UTC","REF_FRAME":"TEME","EPHEMERIS_TYPE":"0","MEAN_MOTION_DOT":"0.00008475","RCS_SIZE":"LARGE","NORAD_CAT_ID":"44723","TLE_LINE2":"2 44723  53.0542   4.1945 0001711  72.9831 287.1345 15.06409336125223","TLE_LINE1":"1 44723U 19074L   22046.66359701  .00008475  00000-0  58701-3 0  9990","RA_OF_ASC_NODE":"4.1945","BSTAR":"0.00058701000000","OBJECT_NAME":"STARLINK-1017","MEAN_MOTION":"15.06409336","ELEMENT_SET_NO":"999","FILE":"3301463","CLASSIFICATION_TYPE":"U","SITE":"AFETR","PERIAPSIS":"546.000","DECAY_DATE":null,"PERIOD":"95.592","ECCENTRICITY":"0.00017110","SEMIMAJOR_AXIS":"6925.320","COUNTRY_CODE":"US","INCLINATION":"53.0542","MEAN_ELEMENT_THEORY":"SGP4","MEAN_ANOMALY":"287.1345","LAUNCH_DATE":"2019-11-11","EPOCH":"2022-02-15T15:55:34.781664","ARG_OF_PERICENTER":"72.9831","MEAN_MOTION_DDOT":"0.0000000000000"},{"RCS_SIZE":"LARGE","NORAD_CAT_ID":"44724","TLE_LINE2":"2 44724  53.0565   3.1593 0001506  59.9411 300.1727 15.06382832125252","RA_OF_ASC_NODE":"3.1593","TLE_LINE1":"1 44724U 19074M   22046.89212491 -.00000009  00000-0  18279-4 0  9993","REV_AT_EPOCH":"12525","OBJECT_ID":"2019-074M","APOAPSIS":"548.309","GP_ID":"196056762","CENTER_NAME":"EARTH","TIME_SYSTEM":"UTC","OBJECT_TYPE":"PAYLOAD","REF_FRAME":"TEME","EPHEMERIS_TYPE":"0","MEAN_MOTION_DOT":"-0.00000009","ECCENTRICITY":"0.00015060","DECAY_DATE":null,"PERIOD":"95.593","COUNTRY_CODE":"US","SEMIMAJOR_AXIS":"6925.401","INCLINATION":"53.0565","MEAN_ELEMENT_THEORY":"SGP4","MEAN_ANOMALY":"300.1727","LAUNCH_DATE":"2019-11-11","ARG_OF_PERICENTER":"59.9411","EPOCH":"2022-02-15T21:24:39.592224","MEAN_MOTION_DDOT":"0.0000000000000","OBJECT_NAME":"STARLINK-1019","BSTAR":"0.00001827900000","MEAN_MOTION":"15.06382832","ELEMENT_SET_NO":"999","FILE":"3301463","CLASSIFICATION_TYPE":"U","SITE":"AFETR","PERIAPSIS":"546.223"},{"TLE_LINE2":"2 44725  53.0557  24.3126 0001885  60.7671 299.3506 15.06387227124930","NORAD_CAT_ID":"44725","TLE_LINE1":"1 44725U 19074N   22046.63226349  .00003745  00000-0  27030-3 0  9996","RA_OF_ASC_NODE":"24.3126","RCS_SIZE":"LARGE","REF_FRAME":"TEME","MEAN_MOTION_DOT":"0.00003745","EPHEMERIS_TYPE":"0","OBJECT_ID":"2019-074N","REV_AT_EPOCH":"12493","OBJECT_TYPE":"PAYLOAD","TIME_SYSTEM":"UTC","GP_ID":"196057513","CENTER_NAME":"EARTH","APOAPSIS":"548.558","LAUNCH_DATE":"2019-11-11","MEAN_ANOMALY":"299.3506","MEAN_ELEMENT_THEORY":"SGP4","MEAN_MOTION_DDOT":"0.0000000000000","EPOCH":"2022-02-15T15:10:27.565536","ARG_OF_PERICENTER":"60.7671","DECAY_DATE":null,"PERIOD":"95.593","ECCENTRICITY":"0.00018850","COUNTRY_CODE":"US","SEMIMAJOR_AXIS":"6925.388","INCLINATION":"53.0557","CLASSIFICATION_TYPE":"U","FILE":"3301463","PERIAPSIS":"545.947","SITE":"AFETR","MEAN_MOTION":"15.06387227","BSTAR":"0.00027030000000","OBJECT_NAME":"STARLINK-1020","ELEMENT_SET_NO":"999"},{"TLE_LINE2":"2 44726  53.0559   3.1848 0001502  64.7877 295.3268 15.06402033125257","NORAD_CAT_ID":"44726","RA_OF_ASC_NODE":"3.1848","TLE_LINE1":"1 44726U 19074P   22046.88843153  .00004335  00000-0  30974-3 0  9999","RCS_SIZE":"LARGE","REF_FRAME":"TEME","MEAN_MOTION_DOT":"0.00004335","EPHEMERIS_TYPE":"0","OBJECT_ID":"2019-074P","REV_AT_EPOCH":"12525","TIME_SYSTEM":"UTC","OBJECT_TYPE":"PAYLOAD","CENTER_NAME":"EARTH","GP_ID":"196057764","APOAPSIS":"548.248","LAUNCH_DATE":"2019-11-11","MEAN_ANOMALY":"295.3268","MEAN_ELEMENT_THEORY":"SGP4","MEAN_MOTION_DDOT":"0.0000000000000","ARG_OF_PERICENTER":"64.7877","EPOCH":"2022-02-15T21:19:20.484192","ECCENTRICITY":"0.00015020","DECAY_DATE":null,"PERIOD":"95.592","COUNTRY_CODE":"US","SEMIMAJOR_AXIS":"6925.342","INCLINATION":"53.0559","CLASSIFICATION_TYPE":"U","FILE":"3301463","PERIAPSIS":"546.167","SITE":"AFETR","MEAN_MOTION":"15.06402033","OBJECT_NAME":"STARLINK-1021","BSTAR":"0.00030974000000","ELEMENT_SET_NO":"999"},{"RCS_SIZE":"LARGE","RA_OF_ASC_NODE":"43.3119","TLE_LINE1":"1 44727U 19074Q   22046.85800314  .00002516  00000-0  18777-3 0  9995","TLE_LINE2":"2 44727  53.0559  43.3119 0001766  55.3011 304.8144 15.06395109124706","NORAD_CAT_ID":"44727","TIME_SYSTEM":"UTC","OBJECT_TYPE":"PAYLOAD","APOAPSIS":"548.452","GP_ID":"196056011","CENTER_NAME":"EARTH","OBJECT_ID":"2019-074Q","REV_AT_EPOCH":"12470","MEAN_MOTION_DOT":"0.00002516","EPHEMERIS_TYPE":"0","REF_FRAME":"TEME","COUNTRY_CODE":"US","INCLINATION":"53.0559","SEMIMAJOR_AXIS":"6925.364","PERIOD":"95.592","DECAY_DATE":null,"ECCENTRICITY":"0.00017660","MEAN_MOTION_DDOT":"0.0000000000000","ARG_OF_PERICENTER":"55.3011","EPOCH":"2022-02-15T20:35:31.471296","LAUNCH_DATE":"2019-11-11","MEAN_ANOMALY":"304.8144","MEAN_ELEMENT_THEORY":"SGP4","ELEMENT_SET_NO":"999","MEAN_MOTION":"15.06395109","OBJECT_NAME":"STARLINK-1022","BSTAR":"0.00018777000000","PERIAPSIS":"546.006","SITE":"AFETR","CLASSIFICATION_TYPE":"U","FILE":"3301463"},{"OBJECT_TYPE":"PAYLOAD","TIME_SYSTEM":"UTC","APOAPSIS":"537.629","GP_ID":"196056263","CENTER_NAME":"EARTH","OBJECT_ID":"2019-074S","REV_AT_EPOCH":"12498","MEAN_MOTION_DOT":"0.00009527","EPHEMERIS_TYPE":"0","REF_FRAME":"TEME","RCS_SIZE":"LARGE","RA_OF_ASC_NODE":"18.9930","TLE_LINE1":"1 44729U 19074S   22046.63016631  .00009527  00000-0  60336-3 0  9991","TLE_LINE2":"2 44729  53.0021  18.9930 0000261 100.7595 259.3424 15.09591825124983","NORAD_CAT_ID":"44729","ELEMENT_SET_NO":"999","MEAN_MOTION":"15.09591825","BSTAR":"0.00060336000000","OBJECT_NAME":"STARLINK-1024","PERIAPSIS":"537.268","SITE":"AFETR","CLASSIFICATION_TYPE":"U","FILE":"3301463","COUNTRY_CODE":"US","INCLINATION":"53.0021","SEMIMAJOR_AXIS":"6915.583","ECCENTRICITY":"0.00002610","DECAY_DATE":null,"PERIOD":"95.390","MEAN_MOTION_DDOT":"0.0000000000000","EPOCH":"2022-02-15T15:07:26.369184","ARG_OF_PERICENTER":"100.7595","MEAN_ANOMALY":"259.3424","LAUNCH_DATE":"2019-11-11","MEAN_ELEMENT_THEORY":"SGP4"}];
